STARLINK-3614           
1 51771U 22017D   22073.50001157  .00520115  00000+0  35353-2 0  9990
2 51771  53.2176  60.1809 0001393  53.3021  42.2277 15.72867200  3882
STARLINK-3623           
1 51772U 22017E   22073.16667824  .00007180  00000+0  55478-4 0  9996
2 51772  53.2185  61.8335 0001408  49.2398 319.3330 15.73222783  3883
STARLINK-3624           
1 51773U 22017F   22073.50001157  .00086596  00000+0  61403-3 0  9998
2 51773  53.2177  60.1869 0001208  43.3314  53.0102 15.73239951  3895
STARLINK-3629           
1 51774U 22017G   22072.91668981 -.00180808  00000+0 -13078-2 0  9994
2 51774  53.2179  63.0624 0001561  60.8152 332.3898 15.73268480  3079
STARLINK-3620           
1 51775U 22017H   22073.50001157  .00015213  00000+0  11225-3 0  9995
2 51775  53.2177  60.1856 0001323  55.9412  41.0299 15.73276343  3888
STARLINK-3608           
1 51776U 22017J   22073.50001157  .00088574  00000+0  62776-3 0  9993
2 51776  53.2193  60.1812 0001621  36.2915  63.2236 15.73241509  3883
STARLINK-3625           
1 51777U 22017K   22073.50001157  .00057792  00000+0  41226-3 0  9999
2 51777  53.2181  60.1828 0001447  50.6084  47.6252 15.73262410  3890
STARLINK-3615           
1 51778U 22017L   22072.91668981 -.00001395  00000+0 -55140-5 0  9990
2 51778  53.2221  62.7155 0001387  65.5088 140.5513 15.73224281  3076
STARLINK-3611           
1 51779U 22017M   22073.50001157  .00092746  00000+0  65690-3 0  9990
2 51779  53.2180  60.1790 0001260  38.4260  61.7316 15.73238018  3886
STARLINK-3617           
1 51780U 22017N   22073.16667824  .00019402  00000+0  14215-3 0  9998
2 51780  53.2190  61.8237 0001168  56.0894 317.5576 15.73230507  3884
STARLINK-3580           
1 51781U 22017P   22073.50001157 -.00006626  00000+0 -42678-4 0  9999
2 51781  53.2180  60.1779 0001389  52.7961  48.0088 15.73280167  3892
STARLINK-3616           
1 51782U 22017Q   22073.50001157  .00089693  00000+0  63520-3 0  9991
2 51782  53.2186  60.1707 0001228  48.9717  55.6437 15.73254734  3880
STARLINK-3628           
1 51783U 22017R   22073.50001157 -.00006109  00000+0 -38970-4 0  9997
2 51783  53.2181  60.1756 0001609  61.4380  40.6267 15.73294758  3884
STARLINK-3632           
1 51784U 22017S   22073.16667824  .00043129  00000+0  30945-3 0  9993
2 51784  53.2190  61.8186 0001632  55.6494 320.5548 15.73251955  3847
STARLINK-3646           
1 51785U 22017T   22073.50001157 -.00018809  00000+0 -12938-3 0  9994
2 51785  53.2182  60.1728 0001498  46.5466  56.8039 15.73291571  3933
STARLINK-3638           
1 51786U 22017U   22073.16667824  .00045586  00000+0  32721-3 0  9998
2 51786  53.2193  61.8165 0001327  54.9326 322.4919 15.73217638  3883
STARLINK-3619           
1 51787U 22017V   22073.50001157 -.00018132  00000+0 -12457-3 0  9991
2 51787  53.2182  60.1713 0001460  36.1149  67.8680 15.73288480  3884
STARLINK-3641           
1 51788U 22017W   22073.50001157  .00062620  00000+0  44647-3 0  9997
2 51788  53.2188  60.1632 0001217  44.0520  64.3784 15.73241815  3880
STARLINK-3639           
1 51789U 22017X   22073.50001157 -.00000967  00000+0 -24544-5 0  9992
2 51789  53.2185  60.1678 0001531  57.0950  48.7952 15.73279500  3894
STARLINK-3631           
1 51790U 22017Y   22073.50001157  .00057981  00000+0  41421-3 0  9991
2 51790  53.2186  60.1616 0001393  60.8817  48.2141 15.73227115  3934
STARLINK-3602           
1 51791U 22017Z   22073.50001157  .00050034  00000+0  35832-3 0  9993
2 51791  53.2183  60.1651 0001331  45.0324  62.1391 15.73230906  3889
STARLINK-3626           
1 51792U 22017AA  22073.50001157  .00093906  00000+0  66531-3 0  9999
2 51792  53.2191  60.1595 0001329  43.0973  67.2922 15.73226006  3939
STARLINK-3633           
1 51793U 22017AB  22073.50001157  .00092839  00000+0  65744-3 0  9999
2 51793  53.2182  60.1638 0001231  45.0698  62.7447 15.73241857  3939
STARLINK-3573           
1 51794U 22017AC  22073.50001157  .00026534  00000+0  19234-3 0  9992
2 51794  53.2188  60.1567 0001176  61.8394  49.7973 15.73265784  3882
STARLINK-3586           
1 51795U 22017AD  22073.50001157 -.00018927  00000+0 -13027-3 0  9996
2 51795  53.2183  60.1575 0001079  46.5745  64.4057 15.73283905  3881
STARLINK-3630           
1 51796U 22017AE  22073.50001157 -.00009035  00000+0 -59827-4 0  9996
2 51796  53.2186  60.1525 0001171  46.5681  66.9882 15.73277376  3880
STARLINK-3627           
1 51797U 22017AF  22073.50001157 -.00022964  00000+0 -15898-3 0  9992
2 51797  53.2190  60.1604 0001222  51.7959  57.9286 15.73297547  3933
STARLINK-3634           
1 51798U 22017AG  22073.50001157  .00087286  00000+0  61894-3 0  9996
2 51798  53.2187  60.1514 0001407  53.3036  60.8705 15.73236029  3936
STARLINK-3637           
1 51799U 22017AH  22073.50001157 -.00774259  00000+0 -59595-2 0  9996
2 51799  53.2179  60.1504 0001688  44.2277  67.9329 15.73506739  3886
STARLINK-3600           
1 51800U 22017AJ  22073.16667824  .00048803  00000+0  34984-3 0  9993
2 51800  53.2193  61.7985 0001172  66.0295 320.3314 15.73218909  3884
STARLINK-3592           
1 51801U 22017AK  22073.50001157  .00226024  00000+0  15940-2 0  9996
2 51801  53.2175  60.1467 0001168  63.6918  49.2447 15.72872544  3898
STARLINK-3557           
1 51802U 22017AL  22073.50001157  .00003102  00000+0  26442-4 0  9998
2 51802  53.2188  60.1470 0001212  60.6427  56.0711 15.73262534  3881
STARLINK-3544           
1 51803U 22017AM  22073.50001157 -.00738328  00000+0 -56692-2 0  9994
2 51803  53.2179  60.1455 0001478  46.2214  68.5331 15.73464478  3880
STARLINK-3601           
1 51804U 22017AN  22073.50001157 -.00017730  00000+0 -12162-3 0  9997
2 51804  53.2206  60.1275 0001406  45.9472  81.3167 15.73305036  3935
STARLINK-3605           
1 51805U 22017AP  22073.16667824  .00149279  00000+0  10516-2 0  9991
2 51805  53.2188  61.7971 0001511  60.4774 326.4353 15.73147426  3880
STARLINK-3581           
1 51806U 22017AQ  22073.50001157 -.00008471  00000+0 -55781-4 0  9996
2 51806  53.2188  60.1417 0001185  46.1867  73.1300 15.73289473  3887
STARLINK-3606           
1 51807U 22017AR  22073.50001157  .00012577  00000+0  93601-4 0  9990
2 51807  53.2183  60.1448 0001347  55.9227  61.4724 15.73274984  3932
STARLINK-3609           
1 51808U 22017AS  22073.50001157 -.00006181  00000+0 -39520-4 0  9997
2 51808  53.2189  60.1389 0001293  62.4941  58.1008 15.73278332  3882
STARLINK-3607           
1 51809U 22017AT  22073.50001157  .00094037  00000+0  66672-3 0  9990
2 51809  53.2185  60.1441 0001046  51.1329  66.7917 15.73208619  3884
STARLINK-3613           
1 51810U 22017AU  22073.50001157  .00046790  00000+0  33532-3 0  9994
2 51810  53.2187  60.1363 0001459  42.4902  79.3784 15.73243485  3881
STARLINK-3569           
1 51811U 22017AV  22073.16667824 -.00029392  00000+0 -20509-3 0  9997
2 51811  53.2191  61.7888 0001008  62.1753 328.7396 15.73273807  3835
STARLINK-3610           
1 51812U 22017AW  22073.50001157 -.00023540  00000+0 -16312-3 0  9993
2 51812  53.2187  60.1351 0001169  68.2726  54.2281 15.73292692  3886
STARLINK-3552           
1 51813U 22017AX  22073.16667824  .00030119  00000+0  21787-3 0  9995
2 51813  53.2190  61.7864 0001213  73.8318 318.3875 15.73240678  3831
STARLINK-3599           
1 51814U 22017AY  22073.50001157  .00097007  00000+0  68597-3 0  9994
2 51814  53.2190  60.1334 0001214  60.3843  63.2370 15.73257258  3885
STARLINK-3604           
1 51815U 22017AZ  22073.16667824  .00034073  00000+0  24595-3 0  9990
2 51815  53.2189  61.7822 0001423  54.5101 339.6629 15.73224401  3833
STARLINK-3603           
1 51816U 22017BA  22073.50001157 -.00031518  00000+0 -22018-3 0  9991
2 51816  53.2190  60.1315 0001079  58.3773  66.0556 15.73285484  3939
STARLINK-3596           
1 51817U 22017BB  22073.44339284  .00041809  00000+0  16471-3 0  9998
2 51817  53.2229  59.2726 0006777 281.9893  78.0373 15.86429197  3895
FALCON 9 DEB            
1 51818U 22017BC  22073.35900981  .00299179  45179-4  85170-3 0  9995
2 51818  53.2307  59.4615 0004934 336.9160  23.1647 15.92827945  2651
FALCON 9 DEB            
1 51819U 22017BD  22073.35296895  .00357013  60737-4  95802-3 0  9990
2 51819  53.2283  59.4188 0002775 313.4687  46.6111 15.93930834  2654
FALCON 9 DEB            
1 51820U 22017BE  22073.34146146  .00367024  64575-4  91554-3 0  9991
2 51820  53.2251  59.3350 0006751 296.7019  63.3320 15.95252829  2652
FALCON 9 DEB            
1 51821U 22017BF  22073.33848219  .00343687  57871-4  85501-3 0  9996
2 51821  53.2227  59.3096 0005880 274.9232  85.1126 15.95323487  2655
L-SAR 01B               
1 51822U 22018A   22073.42476486  .00000631  00000+0  73982-4 0  9998
2 51822  97.8107  82.1513 0001610  95.2505 264.8904 14.88417439  2291
CZ-4C R/B               
1 51823U 22018B   22072.97800347  .00008317  00000+0  30704-3 0  9998
2 51823  97.8619  82.5934 0133147 349.8224  10.0318 15.20020684  2286
2022-019A               
1 51824U 22019A   22073.50342688  .00004777  00000+0  30793-3 0  9993
2 51824  97.5187 149.9890 0020410 214.4892 202.4804 15.08619642  2325
2022-019B               
1 51825U 22019B   22073.50108862  .00004540  00000+0  29106-3 0  9992
2 51825  97.5180 149.9889 0018581 210.2662 208.2383 15.08871278  2312
2022-019C               
1 51826U 22019C   22073.49874052  .00005475  00000+0  34831-3 0  9991
2 51826  97.5172 149.9881 0017741 211.6107 204.8049 15.09079390  2319
2022-019D               
1 51827U 22019D   22073.51155373  .00004412  00000+0  28113-3 0  9999
2 51827  97.5192 150.0077 0016431 211.0074 279.2135 15.09141494  2311
2022-019E               
1 51828U 22019E   22073.49772201  .00005610  00000+0  35585-3 0  9994
2 51828  97.5189 149.9940 0017266 213.1383 203.5367 15.09183947  2313
2022-019F               
1 51829U 22019F   22073.49692455  .00007754  00000+0  48893-3 0  9994
2 51829  97.5234 150.0047 0016646 212.7596 203.5590 15.09282456  2311
